[
  {
    "OBJECT_NAME": "IRIDIUM 139",
    "OBJECT_ID": "2017-061J",
    "EPOCH": "2026-07-06T15:43:58.616256",
    "MEAN_MOTION": 14.34218581,
    "ECCENTRICITY": 0.0002215,
    "INCLINATION": 86.3965,
    "RA_OF_ASC_NODE": 17.1779,
    "ARG_OF_PERICENTER": 91.4826,
    "MEAN_ANOMALY": 268.6623,
    "EPHEMERIS_TYPE": 0,
    "CLASSIFICATION_TYPE": "U",
    "NORAD_CAT_ID": 42963,
    "ELEMENT_SET_NO": 999,
    "REV_AT_EPOCH": 45763,
    "BSTAR": 0.00006189,
    "MEAN_MOTION_DOT": 0.00000193,
    "MEAN_MOTION_DDOT": 0
  },
  {
    "OBJECT_NAME": "IRIDIUM 125",
    "OBJECT_ID": "2017-061K",
    "EPOCH": "2026-07-06T13:45:14.841216",
    "MEAN_MOTION": 14.3422187,
    "ECCENTRICITY": 0.0001696,
    "INCLINATION": 86.3965,
    "RA_OF_ASC_NODE": 17.2739,
    "ARG_OF_PERICENTER": 82.5054,
    "MEAN_ANOMALY": 277.6334,
    "EPHEMERIS_TYPE": 0,
    "CLASSIFICATION_TYPE": "U",
    "NORAD_CAT_ID": 42964,
    "ELEMENT_SET_NO": 999,
    "REV_AT_EPOCH": 45763,
    "BSTAR": 0.000067541,
    "MEAN_MOTION_DOT": 0.00000209,
    "MEAN_MOTION_DDOT": 0
  },
  {
    "OBJECT_NAME": "IRIDIUM 135",
    "OBJECT_ID": "2017-083A",
    "EPOCH": "2026-07-06T09:47:03.139008",
    "MEAN_MOTION": 14.34218109,
    "ECCENTRICITY": 0.0002184,
    "INCLINATION": 86.3982,
    "RA_OF_ASC_NODE": 313.9802,
    "ARG_OF_PERICENTER": 93.2291,
    "MEAN_ANOMALY": 266.9155,
    "EPHEMERIS_TYPE": 0,
    "CLASSIFICATION_TYPE": "U",
    "NORAD_CAT_ID": 43070,
    "ELEMENT_SET_NO": 999,
    "REV_AT_EPOCH": 44690,
    "BSTAR": 0.000014754,
    "MEAN_MOTION_DOT": 6.1e-7,
    "MEAN_MOTION_DDOT": 0
  },
  {
    "OBJECT_NAME": "IRIDIUM 138",
    "OBJECT_ID": "2017-083B",
    "EPOCH": "2026-07-06T20:26:23.051616",
    "MEAN_MOTION": 14.34218277,
    "ECCENTRICITY": 0.0002101,
    "INCLINATION": 86.3995,
    "RA_OF_ASC_NODE": 313.4929,
    "ARG_OF_PERICENTER": 89.473,
    "MEAN_ANOMALY": 270.6707,
    "EPHEMERIS_TYPE": 0,
    "CLASSIFICATION_TYPE": "U",
    "NORAD_CAT_ID": 43071,
    "ELEMENT_SET_NO": 999,
    "REV_AT_EPOCH": 44695,
    "BSTAR": 0.000015106,
    "MEAN_MOTION_DOT": 6.2e-7,
    "MEAN_MOTION_DDOT": 0
  },
  {
    "OBJECT_NAME": "IRIDIUM 116",
    "OBJECT_ID": "2017-083C",
    "EPOCH": "2026-07-06T09:37:55.096032",
    "MEAN_MOTION": 14.34218745,
    "ECCENTRICITY": 0.0002322,
    "INCLINATION": 86.398,
    "RA_OF_ASC_NODE": 313.9683,
    "ARG_OF_PERICENTER": 100.6789,
    "MEAN_ANOMALY": 259.4668,
    "EPHEMERIS_TYPE": 0,
    "CLASSIFICATION_TYPE": "U",
    "NORAD_CAT_ID": 43072,
    "ELEMENT_SET_NO": 999,
    "REV_AT_EPOCH": 44692,
    "BSTAR": 0.00011538,
    "MEAN_MOTION_DOT": 0.00000343,
    "MEAN_MOTION_DDOT": 0
  },
  {
    "OBJECT_NAME": "IRIDIUM 130",
    "OBJECT_ID": "2017-083D",
    "EPOCH": "2026-07-06T20:35:31.024608",
    "MEAN_MOTION": 14.34218303,
    "ECCENTRICITY": 0.0002132,
    "INCLINATION": 86.3989,
    "RA_OF_ASC_NODE": 314.0546,
    "ARG_OF_PERICENTER": 100.4453,
    "MEAN_ANOMALY": 259.6983,
    "EPHEMERIS_TYPE": 0,
    "CLASSIFICATION_TYPE": "U",
    "NORAD_CAT_ID": 43073,
    "ELEMENT_SET_NO": 999,
    "REV_AT_EPOCH": 44693,
    "BSTAR": 0.000024021,
    "MEAN_MOTION_DOT": 8.7e-7,
    "MEAN_MOTION_DDOT": 0
  },
  {
    "OBJECT_NAME": "IRIDIUM 151",
    "OBJECT_ID": "2017-083E",
    "EPOCH": "2026-07-06T09:56:11.058432",
    "MEAN_MOTION": 14.34218609,
    "ECCENTRICITY": 0.0002217,
    "INCLINATION": 86.3984,
    "RA_OF_ASC_NODE": 314.0214,
    "ARG_OF_PERICENTER": 94.1646,
    "MEAN_ANOMALY": 265.9803,
    "EPHEMERIS_TYPE": 0,
    "CLASSIFICATION_TYPE": "U",
    "NORAD_CAT_ID": 43074,
    "ELEMENT_SET_NO": 999,
    "REV_AT_EPOCH": 44689,
    "BSTAR": 0.000031413,
    "MEAN_MOTION_DOT": 0.00000108,
    "MEAN_MOTION_DDOT": 0
  },
  {
    "OBJECT_NAME": "IRIDIUM 134",
    "OBJECT_ID": "2017-083F",
    "EPOCH": "2026-07-06T20:53:47.073408",
    "MEAN_MOTION": 14.34217455,
    "ECCENTRICITY": 0.0002052,
    "INCLINATION": 86.3981,
    "RA_OF_ASC_NODE": 313.8389,
    "ARG_OF_PERICENTER": 95.4828,
    "MEAN_ANOMALY": 264.6602,
    "EPHEMERIS_TYPE": 0,
    "CLASSIFICATION_TYPE": "U",
    "NORAD_CAT_ID": 43075,
    "ELEMENT_SET_NO": 999,
    "REV_AT_EPOCH": 44692,
    "BSTAR": -0.000020486,
    "MEAN_MOTION_DOT": -3.8e-7,
    "MEAN_MOTION_DDOT": 0
  },
  {
    "OBJECT_NAME": "IRIDIUM 137",
    "OBJECT_ID": "2017-083G",
    "EPOCH": "2026-07-06T09:28:47.109216",
    "MEAN_MOTION": 14.3421866,
    "ECCENTRICITY": 0.00026403,
    "INCLINATION": 86.3985,
    "RA_OF_ASC_NODE": 314.1305,
    "ARG_OF_PERICENTER": 97.3462,
    "MEAN_ANOMALY": 262.8034,
    "EPHEMERIS_TYPE": 0,
    "CLASSIFICATION_TYPE": "U",
    "NORAD_CAT_ID": 43076,
    "ELEMENT_SET_NO": 999,
    "REV_AT_EPOCH": 44692,
    "BSTAR": 0.000032507554,
    "MEAN_MOTION_DOT": 0.00000111,
    "MEAN_MOTION_DDOT": 0
  },
  {
    "OBJECT_NAME": "IRIDIUM 141",
    "OBJECT_ID": "2017-083H",
    "EPOCH": "2026-07-06T09:19:39.128448",
    "MEAN_MOTION": 14.34218071,
    "ECCENTRICITY": 0.00021808,
    "INCLINATION": 86.398,
    "RA_OF_ASC_NODE": 313.9628,
    "ARG_OF_PERICENTER": 91.8895,
    "MEAN_ANOMALY": 268.255,
    "EPHEMERIS_TYPE": 0,
    "CLASSIFICATION_TYPE": "U",
    "NORAD_CAT_ID": 43077,
    "ELEMENT_SET_NO": 999,
    "REV_AT_EPOCH": 44692,
    "BSTAR": 0.000014973527,
    "MEAN_MOTION_DOT": 6.2e-7,
    "MEAN_MOTION_DDOT": 0
  },
  {
    "OBJECT_NAME": "IRIDIUM 153",
    "OBJECT_ID": "2017-083J",
    "EPOCH": "2026-07-06T16:33:07.297056",
    "MEAN_MOTION": 14.34218731,
    "ECCENTRICITY": 0.0002113,
    "INCLINATION": 86.3964,
    "RA_OF_ASC_NODE": 282.3175,
    "ARG_OF_PERICENTER": 93.2382,
    "MEAN_ANOMALY": 266.9056,
    "EPHEMERIS_TYPE": 0,
    "CLASSIFICATION_TYPE": "U",
    "NORAD_CAT_ID": 43078,
    "ELEMENT_SET_NO": 999,
    "REV_AT_EPOCH": 44807,
    "BSTAR": 0.000091792,
    "MEAN_MOTION_DOT": 0.00000277,
    "MEAN_MOTION_DDOT": 0
  },
  {
    "OBJECT_NAME": "IRIDIUM 131",
    "OBJECT_ID": "2017-083K",
    "EPOCH": "2026-07-06T20:44:39.120288",
    "MEAN_MOTION": 14.34217791,
    "ECCENTRICITY": 0.0002121,
    "INCLINATION": 86.3984,
    "RA_OF_ASC_NODE": 313.9514,
    "ARG_OF_PERICENTER": 93.324,
    "MEAN_ANOMALY": 266.8199,
    "EPHEMERIS_TYPE": 0,
    "CLASSIFICATION_TYPE": "U",
    "NORAD_CAT_ID": 43079,
    "ELEMENT_SET_NO": 999,
    "REV_AT_EPOCH": 44692,
    "BSTAR": -0.0000032544,
    "MEAN_MOTION_DOT": 1.1e-7,
    "MEAN_MOTION_DDOT": 0
  },
  {
    "OBJECT_NAME": "IRIDIUM 144",
    "OBJECT_ID": "2018-030A",
    "EPOCH": "2026-07-06T16:42:15.382368",
    "MEAN_MOTION": 14.34218132,
    "ECCENTRICITY": 0.0002299,
    "INCLINATION": 86.3964,
    "RA_OF_ASC_NODE": 282.2436,
    "ARG_OF_PERICENTER": 98.0245,
    "MEAN_ANOMALY": 262.1211,
    "EPHEMERIS_TYPE": 0,
    "CLASSIFICATION_TYPE": "U",
    "NORAD_CAT_ID": 43249,
    "ELEMENT_SET_NO": 999,
    "REV_AT_EPOCH": 43293,
    "BSTAR": 0.000028618,
    "MEAN_MOTION_DOT": 0.000001,
    "MEAN_MOTION_DDOT": 0
  },
  {
    "OBJECT_NAME": "IRIDIUM 149",
    "OBJECT_ID": "2018-030B",
    "EPOCH": "2026-07-06T16:51:23.287968",
    "MEAN_MOTION": 14.34218704,
    "ECCENTRICITY": 0.0002265,
    "INCLINATION": 86.3961,
    "RA_OF_ASC_NODE": 282.2075,
    "ARG_OF_PERICENTER": 93.5688,
    "MEAN_ANOMALY": 266.5767,
    "EPHEMERIS_TYPE": 0,
    "CLASSIFICATION_TYPE": "U",
    "NORAD_CAT_ID": 43250,
    "ELEMENT_SET_NO": 999,
    "REV_AT_EPOCH": 43295,
    "BSTAR": 0.000031397,
    "MEAN_MOTION_DOT": 0.00000108,
    "MEAN_MOTION_DDOT": 0
  }
]